KUIPER-00152            
1 65772U 25217L   25290.15885782  .00067380  00000+0  18175-2 0  9993
2 65772  51.8736 337.7844 0002140  74.2523 285.8700 15.37165406  3343
KUIPER-00153            
1 65773U 25217M   25290.18985691  .00033347  00000+0  97340-3 0  9995
2 65773  51.8654 337.9818 0008259 181.3425 178.7540 15.34993662  3346
KUIPER-00155            
1 65774U 25217N   25290.11424622  .00039810  00000+0  11316-2 0  9990
2 65774  51.8680 338.2335 0005135 166.8360 193.2761 15.35760405  3334
KUIPER-00156            
1 65775U 25217P   25290.16312120  .00034063  00000+0  93567-3 0  9999
2 65775  51.8739 337.8147 0002527 111.5061 248.6195 15.36911204  3346
KUIPER-00158            
1 65776U 25217Q   25290.11116900  .00037235  00000+0  10523-2 0  9997
2 65776  51.8716 338.2160 0004939 161.7770 198.3394 15.35975725  3333
KUIPER-00163            
1 65777U 25217R   25290.18783123  .00029120  00000+0  84801-3 0  9997
2 65777  51.8641 337.9674 0007738 181.8413 178.2545 15.35141053  3349
KUIPER-00165            
1 65778U 25217S   25290.10531691  .00027327  00000+0  76623-3 0  9991
2 65778  51.8718 338.1779 0004081 138.5259 221.6038 15.36381056  3338
KUIPER-00166            
1 65779U 25217T   25290.10105022  .00053650  00000+0  14740-2 0  9996
2 65779  51.8728 338.1514 0003441 117.6933 242.4403 15.36695144  3336
